[{"OBJECT_NAME":"STARLINK-3678","OBJECT_ID":"2022-029AK","EPOCH":"2026-03-09T10:27:44.269920","MEAN_MOTION":15.08831331,"ECCENTRICITY":0.00013369,"INCLINATION":53.2174,"RA_OF_ASC_NODE":70.2621,"ARG_OF_PERICENTER":93.2339,"MEAN_ANOMALY":266.8806,"EPHEMERIS_TYPE":0,"CLASSIFICATION_TYPE":"U","NORAD_CAT_ID":52121,"ELEMENT_SET_NO":999,"REV_AT_EPOCH":22088,"BSTAR":-5.35713e-5,"MEAN_MOTION_DOT":-1.14e-5,"MEAN_MOTION_DDOT":0},{"OBJECT_NAME":"UPPER FREE FLYER","OBJECT_ID":"2018-099F","EPOCH":"2026-03-09T16:53:56.769792","MEAN_MOTION":15.10728091,"ECCENTRICITY":0.00115819,"INCLINATION":97.4495,"RA_OF_ASC_NODE":120.4613,"ARG_OF_PERICENTER":289.4209,"MEAN_ANOMALY":70.5769,"EPHEMERIS_TYPE":0,"CLASSIFICATION_TYPE":"U","NORAD_CAT_ID":43763,"ELEMENT_SET_NO":999,"REV_AT_EPOCH":39752,"BSTAR":0.00029221901,"MEAN_MOTION_DOT":4.788e-5,"MEAN_MOTION_DDOT":0}]
